{
    "links": {
        "self": "http://www.neowsapp.com/rest/v1/neo/3774735?api_key=iIulBulltgU6a56xZRHN4H3l9WmuAYTsLGpBGhQ2"
    },
    "id": "3774735",
    "neo_reference_id": "3774735",
    "name": "(2017 KG5)",
    "designation": "2017 KG5",
    "nasa_jpl_url": "http://ssd.jpl.nasa.gov/sbdb.cgi?sstr=3774735",
    "absolute_magnitude_h": 24.7,
    "estimated_diameter": {
        "kilometers": {
            "estimated_diameter_min": 0.0305179233,
            "estimated_diameter_max": 0.0682401509
        },
        "meters": {
            "estimated_diameter_min": 30.5179232594,
            "estimated_diameter_max": 68.2401509401
        },
        "miles": {
            "estimated_diameter_min": 0.0189629525,
            "estimated_diameter_max": 0.0424024508
        },
        "feet": {
            "estimated_diameter_min": 100.1244233463,
            "estimated_diameter_max": 223.8850168104
        }
    },
    "is_potentially_hazardous_asteroid": false,
    "close_approach_data": [
        {
            "close_approach_date": "2017-05-20",
            "close_approach_date_full": "2017-May-20 11:20",
            "epoch_date_close_approach": 1495279200000,
            "relative_velocity": {
                "kilometers_per_second": "27.428506793",
                "kilometers_per_hour": "98742.6244547611",
                "miles_per_hour": "61354.8268452375"
            },
            "miss_distance": {
                "astronomical": "0.0395702152",
                "lunar": "15.3928137128",
                "kilometers": "5919619.909361624",
                "miles": "3678281.2475094512"
            },
            "orbiting_body": "Earth"
        }
    ],
    "orbital_data": {
        "orbit_id": "5",
        "orbit_determination_date": "2017-06-01 06:17:34",
        "first_observation_date": "2017-05-23",
        "last_observation_date": "2017-05-30",
        "data_arc_in_days": 7,
        "observations_used": 56,
        "orbit_uncertainty": "8",
        "minimum_orbit_intersection": ".0360491",
        "jupiter_tisserand_invariant": "3.035",
        "epoch_osculation": "2457898.5",
        "eccentricity": ".7083716261581867",
        "semi_major_axis": "2.273651737368422",
        "inclination": "36.86726137364706",
        "ascending_node_longitude": "240.6285091178357",
        "orbital_period": "1252.230684833192",
        "perihelion_distance": ".6630613588513665",
        "perihelion_argument": "275.0835144667157",
        "aphelion_distance": "3.884242115885478",
        "perihelion_time": "2457846.110046138923",
        "mean_anomaly": "15.06142887123077",
        "mean_motion": ".2874869657486113",
        "equinox": "J2000",
        "orbit_class": {
            "orbit_class_type": "APO",
            "orbit_class_description": "Near-Earth asteroid orbits which cross the Earth’s orbit similar to that of 1862 Apollo",
            "orbit_class_range": "a (semi-major axis) > 1.0 AU; q (perihelion) < 1.017 AU"
        }
    },
    "is_sentry_object": false
}